NORAD_CAT_ID,OBJECT_NAME,OBJECT_TYPE,EPOCH,MEAN_MOTION,ECCENTRICITY,INCLINATION,RA_OF_ASC_NODE,ARG_OF_PERICENTER,MEAN_ANOMALY,BSTAR,MEAN_MOTION_DOT,MEAN_MOTION_DDOT,TLE_LINE0,TLE_LINE1,TLE_LINE2,SEMIMAJOR_AXIS,PERIOD,APOGEE,PERIGEE,DECAYED
49159.0,STARLINK-3056,PAYLOAD,2023-02-28 11:26:54,14.98328413,0.0003161,70.0012,201.0881,271.1454,88.9343,-0.00011358,-1.448e-05,0.0,0 STARLINK-3056,1 49159U 21082AF  23059.47701809 -.00001448  00000-0 -11358-3 0  9996,2 49159  70.0012 201.0881 0003161 271.1454  88.9343 14.98328413 81529,6950.198,96.107,574.26,569.866,0.0
49159.0,STARLINK-3056,PAYLOAD,2023-02-28 13:03:02,14.98329323,0.00031,70.0009,200.9188,269.0866,90.9938,-8.8856e-05,-1.153e-05,0.0,0 STARLINK-3056,1 49159U 21082AF  23059.54377750 -.00001153  00000-0 -88856-4 0  9999,2 49159  70.0009 200.9188 0003100 269.0866  90.9938 14.98329323 81534,6950.195,96.107,574.215,569.905,0.0
49159.0,STARLINK-3056,PAYLOAD,2023-02-28 17:51:26,14.98336207,0.0002974,70.0011,200.4135,264.0887,95.9933,-7.753e-05,-1.018e-05,0.0,0 STARLINK-3056,1 49159U 21082AF  23059.74405308 -.00001018  00000-0 -77530-4 0  9999,2 49159  70.0011 200.4135 0002974 264.0887  95.9933 14.98336207 81562,6950.174,96.107,574.106,569.972,0.0
49159.0,STARLINK-3056,PAYLOAD,2023-02-28 19:27:34,14.98336222,0.0003207,70.0005,200.2454,270.9212,89.158,-1.5025e-05,-2.72e-06,0.0,0 STARLINK-3056,1 49159U 21082AF  23059.81081278 -.00000272  00000-0 -15025-4 0  9995,2 49159  70.0005 200.2454 0003207 270.9212  89.1580 14.98336222 81576,6950.174,96.107,574.268,569.81,0.0
49159.0,STARLINK-3056,PAYLOAD,2023-03-01 11:28:55,14.98322916,0.0003167,69.9996,198.5625,270.8151,89.2645,2.6231e-05,2.2e-06,0.0,0 STARLINK-3056,1 49159U 21082AF  23060.47842533  .00000220  00000-0  26231-4 0  9990,2 49159  69.9996 198.5625 0003167 270.8151  89.2645 14.98322916 81676,6950.215,96.107,574.281,569.879,0.0
49159.0,STARLINK-3056,PAYLOAD,2023-03-01 13:05:04,14.98323644,0.0003108,69.9997,198.3941,270.8462,89.2341,9.0404e-07,-8.2e-07,0.0,0 STARLINK-3056,1 49159U 21082AF  23060.54518566 -.00000082  00000-0  90404-6 0  9996,2 49159  69.9997 198.3941 0003108 270.8462  89.2341 14.98323644 81689,6950.213,96.107,574.238,569.917,0.0
49159.0,STARLINK-3056,PAYLOAD,2023-03-02 19:31:36,14.98323029,0.0002938,70.0003,195.1961,274.0209,86.0615,0.00049376,5.802e-05,0.0,0 STARLINK-3056,1 49159U 21082AF  23061.81362237  .00005802  00000-0  49376-3 0  9992,2 49159  70.0003 195.1961 0002938 274.0209  86.0615 14.98323029 81879,6950.214,96.107,574.121,570.037,0.0
49159.0,STARLINK-3056,PAYLOAD,2023-03-03 11:32:57,14.98334184,0.000295,69.9999,193.5129,272.5838,87.4984,0.0002396,2.767e-05,0.0,0 STARLINK-3056,1 49159U 21082AF  23062.48121799  .00002767  00000-0  23960-3 0  9990,2 49159  69.9999 193.5129 0002950 272.5838  87.4984 14.98334184 81972,6950.18,96.107,574.095,569.995,0.0
49159.0,STARLINK-3056,PAYLOAD,2023-03-04 01:58:10,14.98316895,0.0003006,70.0012,191.998,270.6988,89.3827,-0.00035846,-4.366e-05,0.0,0 STARLINK-3056,1 49159U 21082AF  23063.08206468 -.00004366  00000-0 -35846-3 0  9999,2 49159  70.0012 191.9980 0003006 270.6988  89.3827 14.98316895 82063,6950.233,96.108,574.188,570.009,0.0
49159.0,STARLINK-3056,PAYLOAD,2023-03-04 11:34:58,14.98323679,0.0003154,70.0018,190.9896,269.2637,90.8161,-0.00019304,-2.395e-05,0.0,0 STARLINK-3056,1 49159U 21082AF  23063.48262409 -.00002395  00000-0 -19304-3 0  9991,2 49159  70.0018 190.9896 0003154 269.2637  90.8161 14.98323679 82126,6950.212,96.107,574.27,569.885,0.0
49159.0,STARLINK-3056,PAYLOAD,2023-03-04 17:59:30,14.98333877,0.0002855,70.0012,190.3138,262.2312,97.8523,-9.8339e-06,-2.1e-06,0.0,0 STARLINK-3056,1 49159U 21082AF  23063.74965765 -.00000210  00000-0 -98339-5 0  9996,2 49159  70.0012 190.3138 0002855 262.2312  97.8523 14.98333877 82167,6950.181,96.107,574.03,570.062,0.0
49159.0,STARLINK-3056,PAYLOAD,2023-03-05 08:24:43,14.98329482,0.0002715,70.0025,188.802,270.1023,89.9825,-1.6124e-05,-2.85e-06,0.0,0 STARLINK-3056,1 49159U 21082AF  23064.35050196 -.00000285  00000-0 -16124-4 0  9990,2 49159  70.0025 188.8020 0002715 270.1023  89.9825 14.98329482 82259,6950.194,96.107,573.946,570.173,0.0
49159.0,STARLINK-3056,PAYLOAD,2023-03-05 18:01:31,14.98334893,0.0002592,70.003,187.7924,271.4503,88.6359,0.00013077,1.468e-05,0.0,0 STARLINK-3056,1 49159U 21082AF  23064.75106001  .00001468  00000-0  13077-3 0  9996,2 49159  70.0030 187.7924 0002592 271.4503  88.6359 14.98334893 82313,6950.178,96.107,573.844,570.241,0.0
49159.0,STARLINK-3056,PAYLOAD,2023-03-06 18:03:31,14.98349844,0.0002677,70.0019,185.2652,264.4036,95.6818,0.00059109,6.97e-05,0.0,0 STARLINK-3056,1 49159U 21082AF  23065.75245226  .00006970  00000-0  59109-3 0  9999,2 49159  70.0019 185.2652 0002677 264.4036  95.6818 14.98349844 82464,6950.132,96.106,573.857,570.136,0.0
49159.0,STARLINK-3056,PAYLOAD,2023-03-07 08:28:44,14.98342604,0.00021,70.0025,183.7473,266.1241,93.9678,0.00025748,2.982e-05,0.0,0 STARLINK-3056,1 49159U 21082AF  23066.35329318  .00002982  00000-0  25748-3 0  9992,2 49159  70.0025 183.7473 0002100 266.1241  93.9678 14.98342604 82555,6950.154,96.106,573.478,570.559,0.0
49159.0,STARLINK-3056,PAYLOAD,2023-03-07 18:05:32,14.98340105,0.0002461,70.0013,182.7371,265.4372,94.6506,0.0001447,1.634e-05,0.0,0 STARLINK-3056,1 49159U 21082AF  23066.75385167  .00001634  00000-0  14470-3 0  9993,2 49159  70.0013 182.7371 0002461 265.4372  94.6506 14.98340105 82614,6950.162,96.106,573.737,570.316,0.0
49159.0,STARLINK-3056,PAYLOAD,2023-03-08 00:30:05,14.98337992,0.0002509,70.0015,182.0662,274.6389,85.4484,0.0001009,1.111e-05,0.0,0 STARLINK-3056,1 49159U 21082AF  23067.02089196  .00001111  00000-0  10090-3 0  9991,2 49159  70.0015 182.0662 0002509 274.6389  85.4484 14.98337992 82652,6950.168,96.106,573.777,570.289,0.0
49159.0,STARLINK-3056,PAYLOAD,2023-03-08 10:06:53,14.98324132,0.0002489,70.0034,181.0596,268.5105,91.5769,-0.00021487,-2.655e-05,0.0,0 STARLINK-3056,1 49159U 21082AF  23067.42145818 -.00002655  00000-0 -21487-3 0  9997,2 49159  70.0034 181.0596 0002489 268.5105  91.5769 14.98324132 82716,6950.211,96.107,573.806,570.346,0.0
49159.0,STARLINK-3056,PAYLOAD,2023-03-08 18:07:34,14.98329393,0.0002901,70.0006,180.2162,273.9497,86.1331,-2.9773e-05,-4.48e-06,0.0,0 STARLINK-3056,1 49159U 21082AF  23067.75525772 -.00000448  00000-0 -29773-4 0  9999,2 49159  70.0006 180.2162 0002901 273.9497  86.1331 14.98329393 82762,6950.195,96.107,574.076,570.044,0.0
49159.0,STARLINK-3056,PAYLOAD,2023-03-09 00:32:06,14.98337612,0.0002759,70.0007,179.5432,268.591,91.4933,0.00038269,4.477e-05,0.0,0 STARLINK-3056,1 49159U 21082AF  23068.02229662  .00004477  00000-0  38269-3 0  9992,2 49159  70.0007 179.5432 0002759 268.5910  91.4933 14.98337612 82800,6950.169,96.107,573.952,570.117,0.0
49159.0,STARLINK-3056,PAYLOAD,2023-03-09 13:21:10,14.9833997,0.0002782,70.0029,178.1972,268.7942,91.2899,0.0005309,6.249e-05,0.0,0 STARLINK-3056,1 49159U 21082AF  23068.55637580  .00006249  00000-0  53090-3 0  9990,2 49159  70.0029 178.1972 0002782 268.7942  91.2899 14.98339970 82887,6950.162,96.106,573.961,570.094,0.0
49159.0,STARLINK-3056,PAYLOAD,2023-03-10 00:34:06,14.9835452,0.000346,70.0011,177.018,274.5624,85.5139,0.00088841,0.0001053,0.0,0 STARLINK-3056,1 49159U 21082AF  23069.02368680  .00010530  00000-0  88841-3 0  9995,2 49159  70.0011 177.0180 0003460 274.5624  85.5139 14.98354520 82952,6950.117,96.105,574.387,569.577,0.0
49159.0,STARLINK-3056,PAYLOAD,2023-03-10 10:10:55,14.98332682,0.0002816,70.0027,176.0097,274.0974,85.9863,6.6653e-05,7.02e-06,0.0,0 STARLINK-3056,1 49159U 21082AF  23069.42425412  .00000702  00000-0  66653-4 0  9994,2 49159  70.0027 176.0097 0002816 274.0974  85.9863 14.98332682 83013,6950.185,96.107,574.007,570.092,0.0
49159.0,STARLINK-3056,PAYLOAD,2023-03-10 16:35:27,14.98342623,0.0002951,70.0017,175.3344,271.0232,89.0589,0.00036324,4.245e-05,0.0,0 STARLINK-3056,1 49159U 21082AF  23069.69128780  .00004245  00000-0  36324-3 0  9998,2 49159  70.0017 175.3344 0002951 271.0232  89.0589 14.98342623 83053,6950.154,96.106,574.07,569.968,0.0
49159.0,STARLINK-3056,PAYLOAD,2023-03-11 00:36:08,14.98322097,0.0002237,70.0045,174.4938,269.5812,90.5091,3.7732e-05,3.57e-06,0.0,0 STARLINK-3056,1 49159U 21082AF  23070.02509544  .00000357  00000-0  37732-4 0  9993,2 49159  70.0045 174.4938 0002237 269.5812  90.5091 14.98322097 83100,6950.217,96.108,573.637,570.528,0.0
49159.0,STARLINK-3056,PAYLOAD,2023-03-11 10:12:56,14.98323834,0.0002905,70.0023,173.4836,269.9691,90.1135,2.1909e-05,1.68e-06,0.0,0 STARLINK-3056,1 49159U 21082AF  23070.42565621  .00000168  00000-0  21909-4 0  9994,2 49159  70.0023 173.4836 0002905 269.9691  90.1135 14.98323834 83164,6950.212,96.107,574.096,570.058,0.0
49159.0,STARLINK-3056,PAYLOAD,2023-03-11 16:37:29,14.98326615,0.0002833,70.0023,172.8105,270.0057,90.0777,0.00034654,4.044e-05,0.0,0 STARLINK-3056,1 49159U 21082AF  23070.69269781  .00004044  00000-0  34654-3 0  9998,2 49159  70.0023 172.8105 0002833 270.0057  90.0777 14.98326615 83201,6950.203,96.107,574.037,570.099,0.0
49159.0,STARLINK-3056,PAYLOAD,2023-03-12 07:02:42,14.98319827,0.0002872,70.004,171.2974,272.6839,87.3991,0.0001169,1.302e-05,0.0,0 STARLINK-3056,1 49159U 21082AF  23071.29354525  .00001302  00000-0  11690-3 0  9995,2 49159  70.0040 171.2974 0002872 272.6839  87.3991 14.98319827 83299,6950.224,96.108,574.085,570.093,0.0
49159.0,STARLINK-3056,PAYLOAD,2023-03-12 13:27:14,14.98322261,0.0002706,70.0023,170.6232,266.8911,93.1938,0.00022402,2.58e-05,0.0,0 STARLINK-3056,1 49159U 21082AF  23071.56058609  .00002580  00000-0  22402-3 0  9991,2 49159  70.0023 170.6232 0002706 266.8911  93.1938 14.98322261 83339,6950.217,96.107,573.963,570.201,0.0
49159.0,STARLINK-3056,PAYLOAD,2023-03-12 16:39:30,14.98328883,0.0002821,70.0021,170.2865,269.2964,90.7872,0.00042833,5.021e-05,0.0,0 STARLINK-3056,1 49159U 21082AF  23071.69410485  .00005021  00000-0  42833-3 0  9992,2 49159  70.0021 170.2865 0002821 269.2964  90.7872 14.98328883 83356,6950.196,96.107,574.022,570.101,0.0
